NORAD_CAT_ID,OBJECT_NAME,OBJECT_TYPE,EPOCH,MEAN_MOTION,ECCENTRICITY,INCLINATION,RA_OF_ASC_NODE,ARG_OF_PERICENTER,MEAN_ANOMALY,BSTAR,MEAN_MOTION_DOT,MEAN_MOTION_DDOT,TLE_LINE0,TLE_LINE1,TLE_LINE2,SEMIMAJOR_AXIS,PERIOD,APOGEE,PERIGEE,DECAYED
51987.0,STARLINK-3644,PAYLOAD,2022-09-03 06:00:00,15.08816022,0.0001328,53.2188,40.7022,65.3962,310.822,0.0023661999999999,0.00037546,0.0,0 STARLINK-3644,1 51987U 22025AH  22246.25001157  .00037546  00000-0  23662-2 0  9994,2 51987  53.2188  40.7022 0001328  65.3962 310.8220 15.08816022 28390,6917.954000000002,95.439,540.737,538.9,0.0
51987.0,STARLINK-3644,PAYLOAD,2022-09-03 14:00:01,15.08858573,0.0001406999999999,53.219,39.2067,63.6094,324.187,-0.0016108,-0.00025845,0.0,0 STARLINK-3644,1 51987U 22025AH  22246.58334491 -.00025845  00000-0 -16108-2 0  9998,2 51987  53.2190  39.2067 0001407  63.6094 324.1870 15.08858573  1308,6917.824000000001,95.436,540.6619999999998,538.715,0.0
51987.0,STARLINK-3644,PAYLOAD,2022-09-03 22:00:00,15.08840158,0.0001475,53.2187,37.7113,55.8647,343.5435,0.0019247,0.00030477,0.0,0 STARLINK-3644,1 51987U 22025AH  22246.91667824  .00030477  00000-0  19247-2 0  9996,2 51987  53.2187  37.7113 0001475  55.8647 343.5435 15.08840158  1303,6917.88,95.438,540.765,538.725,0.0
51987.0,STARLINK-3644,PAYLOAD,2022-09-04 06:00:00,15.088328099999998,0.0001376999999999,53.2188,36.2132,66.6912,344.3401,0.00089538,0.00013988,0.0,0 STARLINK-3644,1 51987U 22025AH  22247.25001157  .00013988  00000-0  89538-3 0  9994,2 51987  53.2188  36.2132 0001377  66.6912 344.3401 15.08832810 28548,6917.901999999999,95.438,540.72,538.815,0.0
51987.0,STARLINK-3644,PAYLOAD,2022-09-04 14:00:01,15.08859344,0.0001476,53.2189,34.7178,64.5561,358.1266,-0.0017734,-0.00028416,0.0,0 STARLINK-3644,1 51987U 22025AH  22247.58335648 -.00028416  00000-0 -17734-2 0  9997,2 51987  53.2189  34.7178 0001476  64.5561 358.1266 15.08859344  1307,6917.821,95.436,540.707,538.665,0.0
51987.0,STARLINK-3644,PAYLOAD,2022-09-04 20:00:01,15.08843328,0.0001504,53.2188,33.5965,57.8624,283.4746,9.4791e-05,1.221e-05,0.0,0 STARLINK-3644,1 51987U 22025AH  22247.83334491  .00001221  00000-0  94791-4 0  9993,2 51987  53.2188  33.5965 0001504  57.8624 283.4746 15.08843328  1302,6917.87,95.437,540.776,538.695,0.0
51987.0,STARLINK-3644,PAYLOAD,2022-09-05 12:00:00,15.08872397,0.0001274999999999,53.2188,30.6025,64.836,299.6921,-0.0023982,-0.00038286,0.0,0 STARLINK-3644,1 51987U 22025AH  22248.50001157 -.00038286  00000-0 -23982-2 0  9993,2 51987  53.2188  30.6025 0001275  64.8360 299.6921 15.08872397 28735,6917.781,95.436,540.528,538.764,0.0
51987.0,STARLINK-3644,PAYLOAD,2022-09-05 14:00:01,15.08878024,0.0001325,53.2186,30.229,61.2842,36.1479,-0.0041706,-0.00066122,0.0,0 STARLINK-3644,1 51987U 22025AH  22248.58334491 -.00066122  00000-0 -41706-2 0  9995,2 51987  53.2186  30.2290 0001325  61.2842  36.1479 15.08878024  1304,6917.764,95.435,540.5459999999998,538.7130000000002,0.0
51987.0,STARLINK-3644,PAYLOAD,2022-09-05 22:00:00,15.08830088,0.000137,53.2181,28.7331,53.9659,55.0798,-0.001222,-0.00019678,0.0,0 STARLINK-3644,1 51987U 22025AH  22248.91667824 -.00019678  00000-0 -12220-2 0  9994,2 51987  53.2181  28.7331 0001370  53.9659  55.0798 15.08830088  1303,6917.911,95.438,540.7230000000002,538.828,0.0
51987.0,STARLINK-3644,PAYLOAD,2022-09-06 12:00:00,15.08834412,0.0001318,53.2183,26.1136,65.1994,334.0851,-0.0012684,-0.00020414,0.0,0 STARLINK-3644,1 51987U 22025AH  22249.50001157 -.00020414  00000-0 -12684-2 0  9995,2 51987  53.2183  26.1136 0001318  65.1994 334.0851 15.08834412 28886,6917.897,95.438,540.674,538.851,0.0
51987.0,STARLINK-3644,PAYLOAD,2022-09-06 14:00:01,15.08831246,0.0001364,53.2181,25.74,62.2001,69.9809,-0.0012916,-0.0002078,0.0,0 STARLINK-3644,1 51987U 22025AH  22249.58334491 -.00020780  00000-0 -12916-2 0  9997,2 51987  53.2181  25.7400 0001364  62.2001  69.9809 15.08831246  1308,6917.906999999997,95.438,540.716,538.8290000000002,0.0
51987.0,STARLINK-3644,PAYLOAD,2022-09-06 22:00:00,15.08838693,0.0001450999999999,53.2178,24.244,56.2896,87.4674,-0.0013799,-0.00022181,0.0,0 STARLINK-3644,1 51987U 22025AH  22249.91667824 -.00022181  00000-0 -13799-2 0  9990,2 51987  53.2178  24.2440 0001451  56.2896  87.4674 15.08838693  1302,6917.884,95.438,540.753,538.746,0.0
51987.0,STARLINK-3644,PAYLOAD,2022-09-07 06:00:00,15.08790873,0.0001379,53.2178,22.746,66.6067,88.7452,0.0030421,0.00048394,0.0,0 STARLINK-3644,1 51987U 22025AH  22250.25001157  .00048394  00000-0  30421-2 0  9993,2 51987  53.2178  22.7460 0001379  66.6067  88.7452 15.08790873 29003,6918.031,95.441,540.85,538.942,0.0
51987.0,STARLINK-3644,PAYLOAD,2022-09-07 14:00:01,15.08828021,0.0001496,53.2179,21.251,62.6001,104.3065,-0.0010171,-0.00016433,0.0,0 STARLINK-3644,1 51987U 22025AH  22250.58334491 -.00016433  00000-0 -10171-2 0  9990,2 51987  53.2179  21.2510 0001496  62.6001 104.3065 15.08828021  1303,6917.917,95.438,540.817,538.747,0.0
51987.0,STARLINK-3644,PAYLOAD,2022-09-07 22:00:00,15.08847669,0.000148,53.2178,19.7548,55.6182,122.9035,0.00046822,7.173e-05,0.0,0 STARLINK-3644,1 51987U 22025AH  22250.91667824  .00007173  00000-0  46822-3 0  9998,2 51987  53.2178  19.7548 0001480  55.6182 122.9035 15.08847669  1302,6917.857,95.437,540.746,538.698,0.0
51987.0,STARLINK-3644,PAYLOAD,2022-09-08 06:00:00,15.08847754,0.0001416,53.2179,18.2567,64.2469,125.8933,0.0001691,2.405e-05,0.0,0 STARLINK-3644,1 51987U 22025AH  22251.25001157  .00002405  00000-0  16910-3 0  9995,2 51987  53.2179  18.2567 0001416  64.2469 125.8933 15.08847754 29158,6917.857,95.437,540.701,538.742,0.0
51987.0,STARLINK-3644,PAYLOAD,2022-09-08 14:00:01,15.08846979,0.0001584,53.2182,16.7619,60.7402,141.0032,-0.0011323,-0.00018267,0.0,0 STARLINK-3644,1 51987U 22025AH  22251.58334491 -.00018267  00000-0 -11323-2 0  9998,2 51987  53.2182  16.7619 0001584  60.7402 141.0032 15.08846979  1302,6917.859,95.437,540.82,538.628,0.0
51987.0,STARLINK-3644,PAYLOAD,2022-09-08 22:00:00,15.08852708,0.0001553,53.2182,15.2655,54.746,158.5975,-0.0019781,-0.00031643,0.0,0 STARLINK-3644,1 51987U 22025AH  22251.91667824 -.00031643  00000-0 -19781-2 0  9993,2 51987  53.2182  15.2655 0001553  54.7460 158.5975 15.08852708  1305,6917.842,95.437,540.781,538.632,0.0
51987.0,STARLINK-3644,PAYLOAD,2022-09-09 04:00:00,15.08814539,0.0001396999999999,53.2186,14.1419,59.5081,72.5446,0.0028845,0.00045886,0.0,0 STARLINK-3644,1 51987U 22025AH  22252.16667824  .00045886  00000-0  28845-2 0  9994,2 51987  53.2186  14.1419 0001397  59.5081  72.5446 15.08814539 29299,6917.958000000001,95.439,540.79,538.857,0.0
51987.0,STARLINK-3644,PAYLOAD,2022-09-09 14:00:01,15.08865722,0.0001539,53.2188,12.2728,55.652,180.8829,-0.0027935,-0.00044503,0.0,0 STARLINK-3644,1 51987U 22025AH  22252.58334491 -.00044503  00000-0 -27935-2 0  9997,2 51987  53.2188  12.2728 0001539  55.6520 180.8829 15.08865722  1306,6917.802,95.436,540.731,538.602,0.0
51987.0,STARLINK-3644,PAYLOAD,2022-09-09 22:00:00,15.08855716,0.0001527,53.2189,10.7765,51.1008,197.0379,-0.0034298,-0.00054484,0.0,0 STARLINK-3644,1 51987U 22025AH  22252.91667824 -.00054484  00000-0 -34298-2 0  9992,2 51987  53.2189  10.7765 0001527  51.1008 197.0379 15.08855716 29403,6917.831999999999,95.437,540.754,538.641,0.0
51987.0,STARLINK-3644,PAYLOAD,2022-09-10 14:00:01,15.08832911,0.0001601,53.2194,7.7841,54.0803,217.2251,-0.00067299,-0.00010981,0.0,0 STARLINK-3644,1 51987U 22025AH  22253.58334491 -.00010981  00000-0 -67299-3 0  9999,2 51987  53.2194   7.7841 0001601  54.0803 217.2251 15.08832911 29505,6917.901999999999,95.438,540.875,538.66,0.0
51987.0,STARLINK-3644,PAYLOAD,2022-09-10 22:00:00,15.08844103,0.0001534,53.2194,6.2877,49.8475,233.0366,-0.0029009,-0.00046165,0.0,0 STARLINK-3644,1 51987U 22025AH  22253.91667824 -.00046165  00000-0 -29009-2 0  9994,2 51987  53.2194   6.2877 0001534  49.8475 233.0366 15.08844103  1307,6917.868,95.437,540.794,538.672,0.0
51987.0,STARLINK-3644,PAYLOAD,2022-09-11 04:00:00,15.08822628,0.0001348,53.2196,5.1643,52.7412,148.8698,0.0025686,0.00040809,0.0,0 STARLINK-3644,1 51987U 22025AH  22254.16667824  .00040809  00000-0  25686-2 0  9996,2 51987  53.2196   5.1643 0001348  52.7412 148.8698 15.08822628 29595,6917.933000000001,95.439,540.731,538.866,0.0
51987.0,STARLINK-3644,PAYLOAD,2022-09-11 14:00:01,15.0883374,0.0001593,53.2197,3.2956,51.3321,254.7806,-0.00019884,-3.451e-05,0.0,0 STARLINK-3644,1 51987U 22025AH  22254.58334491 -.00003451  00000-0 -19884-3 0  9991,2 51987  53.2197   3.2956 0001593  51.3321 254.7806 15.08833740  1302,6917.9,95.438,540.867,538.663,0.0
51987.0,STARLINK-3644,PAYLOAD,2022-09-11 22:00:00,15.08856293,0.0001599,53.2195,1.7989,50.78100000000001,266.916,-0.0035860999999999,-0.00056935,0.0,0 STARLINK-3644,1 51987U 22025AH  22254.91667824 -.00056935  00000-0 -35861-2 0  9994,2 51987  53.2195   1.7989 0001599  50.7810 266.9160 15.08856293 29701,6917.831,95.437,540.802,538.589,0.0
51987.0,STARLINK-3644,PAYLOAD,2022-09-12 04:00:00,15.08840321,0.0001597,53.2175,0.6695,54.2391,182.0612,-0.00033111,-5.554e-05,0.0,0 STARLINK-3644,1 51987U 22025AH  22255.16667824 -.00005554  00000-0 -33111-3 0  9990,2 51987  53.2175   0.6695 0001597  54.2391 182.0612 15.08840321 29741,6917.879,95.438,540.849,538.64,0.0
51987.0,STARLINK-3644,PAYLOAD,2022-09-12 14:00:01,15.08841944,0.0001537,53.2176,358.8005,42.9134,297.8757,-0.00050812,-8.366e-05,0.0,0 STARLINK-3644,1 51987U 22025AH  22255.58334491 -.00008366  00000-0 -50812-3 0  9998,2 51987  53.2176 358.8005 0001537  42.9134 297.8757 15.08841944  1307,6917.874,95.437,540.803,538.6759999999998,0.0
51987.0,STARLINK-3644,PAYLOAD,2022-09-12 22:00:00,15.08838361,0.0001465999999999,53.2173,357.3033,43.3597,309.0244,-0.00023428,-4.014e-05,0.0,0 STARLINK-3644,1 51987U 22025AH  22255.91667824 -.00004014  00000-0 -23428-3 0  9993,2 51987  53.2173 357.3033 0001466  43.3597 309.0244 15.08838361  1304,6917.885,95.438,540.765,538.736,0.0
